{
  "type": "FeatureCollection",
  "features": [
    {
      "type": "Feature",
      "properties": {
        "norad_id": 67119,
        "name": "STARLINK-36179",
        "group": "last-30-days",
        "lat": 6.1355619085064586,
        "lon": -126.32832827210488,
        "alt_km": 341.5828074107267,
        "timestamp": "2025-12-27T08:36:17.081526+00:00",
        "meta_object_name": "STARLINK-36179",
        "meta_object_id": "2025-299T",
        "meta_epoch": "2025-12-27T04:00:01.998720",
        "meta_mean_motion": 15.76477036,
        "meta_eccentricity": 0.000174,
        "meta_inclination": 42.9985,
        "meta_ra_of_asc_node": 228.2129,
        "meta_arg_of_pericenter": 274.6526,
        "meta_mean_anomaly": 84.6017,
        "meta_ephemeris_type": 0,
        "meta_classification_type": "U",
        "meta_norad_cat_id": 67119,
        "meta_element_set_no": 999,
        "meta_rev_at_epoch": 312,
        "meta_bstar": -0.012336,
        "meta_mean_motion_dot": -0.01775038,
        "meta_mean_motion_ddot": 0,
        "tle_line1": "1 67119U 25299T   25361.16668980 -.01775038  00000+0 -12336-1 0  9990",
        "tle_line2": "2 67119  42.9985 228.2129 0001740 274.6526  84.6017 15.76477036  3121"
      },
      "geometry": {
        "type": "Point",
        "coordinates": [
          -126.32832827210488,
          6.1355619085064586
        ]
      }
    },
    {
      "type": "Feature",
      "properties": {
        "norad_id": 67120,
        "name": "STARLINK-36217",
        "group": "last-30-days",
        "lat": 5.14564607968012,
        "lon": -127.40269835887239,
        "alt_km": 341.78625624909273,
        "timestamp": "2025-12-27T08:36:17.081538+00:00",
        "meta_object_name": "STARLINK-36217",
        "meta_object_id": "2025-299U",
        "meta_epoch": "2025-12-27T04:00:01.998720",
        "meta_mean_motion": 15.76453621,
        "meta_eccentricity": 0.0001951,
        "meta_inclination": 42.9987,
        "meta_ra_of_asc_node": 228.2174,
        "meta_arg_of_pericenter": 273.4131,
        "meta_mean_anomaly": 84.3942,
        "meta_ephemeris_type": 0,
        "meta_classification_type": "U",
        "meta_norad_cat_id": 67120,
        "meta_element_set_no": 999,
        "meta_rev_at_epoch": 312,
        "meta_bstar": -0.012307,
        "meta_mean_motion_dot": -0.01769884,
        "meta_mean_motion_ddot": 0,
        "tle_line1": "1 67120U 25299U   25361.16668980 -.01769884  00000+0 -12307-1 0  9992",
        "tle_line2": "2 67120  42.9987 228.2174 0001951 273.4131  84.3942 15.76453621  3126"
      },
      "geometry": {
        "type": "Point",
        "coordinates": [
          -127.40269835887239,
          5.14564607968012
        ]
      }
    },
    {
      "type": "Feature",
      "properties": {
        "norad_id": 67121,
        "name": "STARLINK-36124",
        "group": "last-30-days",
        "lat": 8.538967593247628,
        "lon": -123.68869840944772,
        "alt_km": 341.17767567725605,
        "timestamp": "2025-12-27T08:36:17.081550+00:00",
        "meta_object_name": "STARLINK-36124",
        "meta_object_id": "2025-299V",
        "meta_epoch": "2025-12-27T04:00:01.998720",
        "meta_mean_motion": 15.764823,
        "meta_eccentricity": 0.0001884,
        "meta_inclination": 42.9987,
        "meta_ra_of_asc_node": 228.2044,
        "meta_arg_of_pericenter": 279.3627,
        "meta_mean_anomaly": 83.443,
        "meta_ephemeris_type": 0,
        "meta_classification_type": "U",
        "meta_norad_cat_id": 67121,
        "meta_element_set_no": 999,
        "meta_rev_at_epoch": 312,
        "meta_bstar": -0.012244,
        "meta_mean_motion_dot": -0.01763866,
        "meta_mean_motion_ddot": 0,
        "tle_line1": "1 67121U 25299V   25361.16668980 -.01763866  00000+0 -12244-1 0  9997",
        "tle_line2": "2 67121  42.9987 228.2044 0001884 279.3627  83.4430 15.76482300  3121"
      },
      "geometry": {
        "type": "Point",
        "coordinates": [
          -123.68869840944772,
          8.538967593247628
        ]
      }
    },
    {
      "type": "Feature",
      "properties": {
        "norad_id": 67122,
        "name": "STARLINK-36188",
        "group": "last-30-days",
        "lat": 9.617211433404718,
        "lon": -122.48756081333919,
        "alt_km": 341.22009906347193,
        "timestamp": "2025-12-27T08:36:17.081560+00:00",
        "meta_object_name": "STARLINK-36188",
        "meta_object_id": "2025-299W",
        "meta_epoch": "2025-12-27T04:00:01.998720",
        "meta_mean_motion": 15.76494527,
        "meta_eccentricity": 0.0001962,
        "meta_inclination": 42.9986,
        "meta_ra_of_asc_node": 228.2009,
        "meta_arg_of_pericenter": 271.9373,
        "meta_mean_anomaly": 92.464,
        "meta_ephemeris_type": 0,
        "meta_classification_type": "U",
        "meta_norad_cat_id": 67122,
        "meta_element_set_no": 999,
        "meta_rev_at_epoch": 312,
        "meta_bstar": -0.012227,
        "meta_mean_motion_dot": -0.01762636,
        "meta_mean_motion_ddot": 0,
        "tle_line1": "1 67122U 25299W   25361.16668980 -.01762636  00000+0 -12227-1 0  9993",
        "tle_line2": "2 67122  42.9986 228.2009 0001962 271.9373  92.4640 15.76494527  3122"
      },
      "geometry": {
        "type": "Point",
        "coordinates": [
          -122.48756081333919,
          9.617211433404718
        ]
      }
    },
    {
      "type": "Feature",
      "properties": {
        "norad_id": 67123,
        "name": "STARLINK-36151",
        "group": "last-30-days",
        "lat": 7.322940228565927,
        "lon": -125.02951284073217,
        "alt_km": 341.54733296966333,
        "timestamp": "2025-12-27T08:36:17.081572+00:00",
        "meta_object_name": "STARLINK-36151",
        "meta_object_id": "2025-299X",
        "meta_epoch": "2025-12-27T04:00:01.998720",
        "meta_mean_motion": 15.7648807,
        "meta_eccentricity": 0.0001683,
        "meta_inclination": 42.9988,
        "meta_ra_of_asc_node": 228.2092,
        "meta_arg_of_pericenter": 269.1293,
        "meta_mean_anomaly": 91.8739,
        "meta_ephemeris_type": 0,
        "meta_classification_type": "U",
        "meta_norad_cat_id": 67123,
        "meta_element_set_no": 999,
        "meta_rev_at_epoch": 312,
        "meta_bstar": -0.012345,
        "meta_mean_motion_dot": -0.01776908,
        "meta_mean_motion_ddot": 0,
        "tle_line1": "1 67123U 25299X   25361.16668980 -.01776908  00000+0 -12345-1 0  9992",
        "tle_line2": "2 67123  42.9988 228.2092 0001683 269.1293  91.8739 15.76488070  3125"
      },
      "geometry": {
        "type": "Point",
        "coordinates": [
          -125.02951284073217,
          7.322940228565927
        ]
      }
    },
    {
      "type": "Feature",
      "properties": {
        "norad_id": 67124,
        "name": "STARLINK-36195",
        "group": "last-30-days",
        "lat": 10.770903028191587,
        "lon": -121.18956982910075,
        "alt_km": 341.1010047914242,
        "timestamp": "2025-12-27T08:36:17.081582+00:00",
        "meta_object_name": "STARLINK-36195",
        "meta_object_id": "2025-299Y",
        "meta_epoch": "2025-12-27T04:00:01.998720",
        "meta_mean_motion": 15.76513128,
        "meta_eccentricity": 0.0001865,
        "meta_inclination": 42.9987,
        "meta_ra_of_asc_node": 228.1962,
        "meta_arg_of_pericenter": 269.4835,
        "meta_mean_anomaly": 96.6324,
        "meta_ephemeris_type": 0,
        "meta_classification_type": "U",
        "meta_norad_cat_id": 67124,
        "meta_element_set_no": 999,
        "meta_rev_at_epoch": 312,
        "meta_bstar": -0.012314,
        "meta_mean_motion_dot": -0.0177489,
        "meta_mean_motion_ddot": 0,
        "tle_line1": "1 67124U 25299Y   25361.16668980 -.01774890  00000+0 -12314-1 0  9997",
        "tle_line2": "2 67124  42.9987 228.1962 0001865 269.4835  96.6324 15.76513128  3123"
      },
      "geometry": {
        "type": "Point",
        "coordinates": [
          -121.18956982910075,
          10.770903028191587
        ]
      }
    },
    {
      "type": "Feature",
      "properties": {
        "norad_id": 67125,
        "name": "STARLINK-36219",
        "group": "last-30-days",
        "lat": 11.873658099717929,
        "lon": -119.93325019189787,
        "alt_km": 340.81614965669905,
        "timestamp": "2025-12-27T08:36:17.081592+00:00",
        "meta_object_name": "STARLINK-36219",
        "meta_object_id": "2025-299Z",
        "meta_epoch": "2025-12-27T04:00:01.998720",
        "meta_mean_motion": 15.76518824,
        "meta_eccentricity": 0.0001807,
        "meta_inclination": 42.9985,
        "meta_ra_of_asc_node": 228.192,
        "meta_arg_of_pericenter": 274.361,
        "meta_mean_anomaly": 93.4052,
        "meta_ephemeris_type": 0,
        "meta_classification_type": "U",
        "meta_norad_cat_id": 67125,
        "meta_element_set_no": 999,
        "meta_rev_at_epoch": 312,
        "meta_bstar": -0.012235,
        "meta_mean_motion_dot": -0.01765145,
        "meta_mean_motion_ddot": 0,
        "tle_line1": "1 67125U 25299Z   25361.16668980 -.01765145  00000+0 -12235-1 0  9993",
        "tle_line2": "2 67125  42.9985 228.1920 0001807 274.3610  93.4052 15.76518824  3129"
      },
      "geometry": {
        "type": "Point",
        "coordinates": [
          -119.93325019189787,
          11.873658099717929
        ]
      }
    }
  ]
}